NORAD_CAT_ID,OBJECT_NAME,OBJECT_TYPE,EPOCH,MEAN_MOTION,ECCENTRICITY,INCLINATION,RA_OF_ASC_NODE,ARG_OF_PERICENTER,MEAN_ANOMALY,BSTAR,MEAN_MOTION_DOT,MEAN_MOTION_DDOT,TLE_LINE0,TLE_LINE1,TLE_LINE2,SEMIMAJOR_AXIS,PERIOD,APOGEE,PERIGEE,DECAYED
52625.0,STARLINK-3988,PAYLOAD,2022-08-22 20:00:01,15.07224192,0.000135,53.2164,321.7963,75.3833,184.5894,-0.0012337,-0.00019022,0.0,0 STARLINK-3988,1 52625U 22052AD  22234.83334491 -.00019022  00000-0 -12337-2 0  9993,2 52625  53.2164 321.7963 0001350  75.3833 184.5894 15.07224192 15886,6922.824000000001,95.54,545.623,543.754,0.0
52625.0,STARLINK-3988,PAYLOAD,2022-08-22 22:00:00,15.07229023,0.0001339,53.2165,321.4227,77.692,274.6908,-0.0020912,-0.00031994,0.0,0 STARLINK-3988,1 52625U 22052AD  22234.91667824 -.00031994  00000-0 -20912-2 0  9991,2 52625  53.2165 321.4227 0001339  77.6920 274.6908 15.07229023  1303,6922.809,95.54,545.601,543.747,0.0
52625.0,STARLINK-3988,PAYLOAD,2022-08-23 12:00:00,15.07222757,0.0001409999999999,53.2167,318.8113,76.5493,202.7129,-0.00082543,-0.00012832,0.0,0 STARLINK-3988,1 52625U 22052AD  22235.50001157 -.00012832  00000-0 -82543-3 0  9997,2 52625  53.2167 318.8113 0001410  76.5493 202.7129 15.07222757 15985,6922.828,95.54,545.669,543.717,0.0
52625.0,STARLINK-3988,PAYLOAD,2022-08-23 14:00:01,15.07213802,0.0001438,53.2169,318.4385,74.75399999999998,296.9223,0.00043258,6.309e-05,0.0,0 STARLINK-3988,1 52625U 22052AD  22235.58334491  .00006309  00000-0  43258-3 0  9995,2 52625  53.2169 318.4385 0001438  74.7540 296.9223 15.07213802  1309,6922.855,95.541,545.716,543.725,0.0
52625.0,STARLINK-3988,PAYLOAD,2022-08-23 22:00:01,15.07232785,0.0001401,53.2168,316.9447,78.3917,302.9924,-0.0041402,-0.00062799,0.0,0 STARLINK-3988,1 52625U 22052AD  22235.91668981 -.00062799  00000-0 -41402-2 0  9991,2 52625  53.2168 316.9447 0001401  78.3917 302.9924 15.07232785  1305,6922.797,95.539,545.632,543.692,0.0
52625.0,STARLINK-3988,PAYLOAD,2022-08-24 14:00:01,15.07193205,0.0001482,53.2169,313.9609,75.4494,325.141,0.0011499,0.00017258,0.0,0 STARLINK-3988,1 52625U 22052AD  22236.58334491  .00017258  00000-0  11499-2 0  9992,2 52625  53.2169 313.9609 0001482  75.4494 325.1410 15.07193205  1300,6922.919,95.542,545.81,543.758,0.0
52625.0,STARLINK-3988,PAYLOAD,2022-08-24 20:00:01,15.07223267,0.0001395,53.2166,312.8408,76.2382,241.5641,-0.0021777,-0.00033294,0.0,0 STARLINK-3988,1 52625U 22052AD  22236.83334491 -.00033294  00000-0 -21777-2 0  9990,2 52625  53.2166 312.8408 0001395  76.2382 241.5641 15.07223267 16192,6922.8269999999975,95.54,545.6569999999998,543.726,0.0
52625.0,STARLINK-3988,PAYLOAD,2022-08-24 22:00:00,15.07217609,0.0001388,53.2167,312.4671,79.9323,330.2815,-0.0016557,-0.00025405,0.0,0 STARLINK-3988,1 52625U 22052AD  22236.91667824 -.00025405  00000-0 -16557-2 0  9993,2 52625  53.2167 312.4671 0001388  79.9323 330.2815 15.07217609  1307,6922.844,95.54,545.67,543.748,0.0
52625.0,STARLINK-3988,PAYLOAD,2022-08-25 12:00:00,15.07212328,0.0001429,53.2165,309.8564,76.9596,260.118,-0.00057442,-9.018e-05,0.0,0 STARLINK-3988,1 52625U 22052AD  22237.50001157 -.00009018  00000-0 -57442-3 0  9991,2 52625  53.2165 309.8564 0001429  76.9596 260.1180 15.07212328 16294,6922.86,95.541,545.714,543.736,0.0
52625.0,STARLINK-3988,PAYLOAD,2022-08-25 14:00:01,15.07197993,0.0001419999999999,53.2165,309.4835,75.7269,353.7639,0.0015023,0.00022654,0.0,0 STARLINK-3988,1 52625U 22052AD  22237.58334491  .00022654  00000-0  15023-2 0  9996,2 52625  53.2165 309.4835 0001420  75.7269 353.7639 15.07197993  1300,6922.904,95.542,545.752,543.786,0.0
52625.0,STARLINK-3988,PAYLOAD,2022-08-25 22:00:00,15.07220359,0.0001331999999999,53.2162,307.9896,81.4433,357.6801,-0.0012312999999999,-0.00018984,0.0,0 STARLINK-3988,1 52625U 22052AD  22237.91667824 -.00018984  00000-0 -12313-2 0  9994,2 52625  53.2162 307.9896 0001332  81.4433 357.6801 15.07220359  1303,6922.835,95.54,545.623,543.778,0.0
52625.0,STARLINK-3988,PAYLOAD,2022-08-26 14:00:01,15.07173063,0.0001264,53.2158,305.0059,74.0417,24.4338,0.0019774,0.00029918,0.0,0 STARLINK-3988,1 52625U 22052AD  22238.58335648  .00029918  00000-0  19774-2 0  9999,2 52625  53.2158 305.0059 0001264  74.0417  24.4338 15.07173063  1305,6922.98,95.543,545.72,543.97,0.0
52625.0,STARLINK-3988,PAYLOAD,2022-08-26 20:00:01,15.07209769,0.0001216,53.2153,303.8855,76.0648,299.5476,-0.0023066999999999,-0.00035227,0.0,0 STARLINK-3988,1 52625U 22052AD  22238.83334491 -.00035227  00000-0 -23067-2 0  9994,2 52625  53.2153 303.8855 0001216  76.0648 299.5476 15.07209769 16492,6922.868,95.541,545.575,543.891,0.0
52625.0,STARLINK-3988,PAYLOAD,2022-08-26 22:00:00,15.07196766,0.0001190999999999,53.2155,303.5119,80.6141,27.4077,-0.00071995,-0.00011223,0.0,0 STARLINK-3988,1 52625U 22052AD  22238.91667824 -.00011223  00000-0 -71995-3 0  9996,2 52625  53.2155 303.5119 0001191  80.6141  27.4077 15.07196766  1306,6922.908,95.542,545.597,543.948,0.0
52625.0,STARLINK-3988,PAYLOAD,2022-08-27 14:00:01,15.07177539,0.0001258,53.2151,300.5283,71.4354,55.8297,0.0026011999999999,0.00039504,0.0,0 STARLINK-3988,1 52625U 22052AD  22239.58334491  .00039504  00000-0  26012-2 0  9990,2 52625  53.2151 300.5283 0001258  71.4354  55.8297 15.07177539  1305,6922.967,95.543,545.702,543.961,0.0
52625.0,STARLINK-3988,PAYLOAD,2022-08-27 22:00:00,15.07201283,0.000118,53.215,299.0341,78.046,58.8379,-0.00020636,-3.423e-05,0.0,0 STARLINK-3988,1 52625U 22052AD  22239.91667824 -.00003423  00000-0 -20636-3 0  9996,2 52625  53.2150 299.0341 0001180  78.0460  58.8379 15.07201283  1304,6922.894,95.541,545.576,543.942,0.0
52625.0,STARLINK-3988,PAYLOAD,2022-08-28 12:00:00,15.07204697,0.0001324,53.2148,296.4233,70.6155,353.1279,0.00063763,9.436e-05,0.0,0 STARLINK-3988,1 52625U 22052AD  22240.50001157  .00009436  00000-0  63763-3 0  9990,2 52625  53.2148 296.4233 0001324  70.6155 353.1279 15.07204697 16747,6922.8830000000025,95.541,545.665,543.832,0.0
52625.0,STARLINK-3988,PAYLOAD,2022-08-28 14:00:01,15.07188692,0.0001291999999999,53.2149,296.0503,67.8612,88.2959,0.0031635,0.00048179,0.0,0 STARLINK-3988,1 52625U 22052AD  22240.58334491  .00048179  00000-0  31635-2 0  9997,2 52625  53.2149 296.0503 0001292  67.8612  88.2959 15.07188692  1307,6922.932,95.542,545.692,543.903,0.0
52625.0,STARLINK-3988,PAYLOAD,2022-08-28 22:00:00,15.07220139,0.0001233,53.2149,294.5559,75.1683,90.622,-0.0013224,-0.00020364,0.0,0 STARLINK-3988,1 52625U 22052AD  22240.91667824 -.00020364  00000-0 -13224-2 0  9995,2 52625  53.2149 294.5559 0001233  75.1683  90.6220 15.07220139  1307,6922.8359999999975,95.54,545.555,543.8480000000002,0.0
52625.0,STARLINK-3988,PAYLOAD,2022-08-29 12:00:00,15.07184972,0.0001464,53.2149,291.9451,69.4851,23.1689,0.0010363,0.00015517,0.0,0 STARLINK-3988,1 52625U 22052AD  22241.50001157  .00015517  00000-0  10363-2 0  9995,2 52625  53.2149 291.9451 0001464  69.4851  23.1689 15.07184972 16892,6922.944,95.542,545.822,543.795,0.0
52625.0,STARLINK-3988,PAYLOAD,2022-08-29 14:00:01,15.07171443,0.0001438,53.2149,291.5721,66.9933,118.0685,0.0032751,0.00049877,0.0,0 STARLINK-3988,1 52625U 22052AD  22241.58334491  .00049877  00000-0  32751-2 0  9994,2 52625  53.2149 291.5721 0001438  66.9933 118.0685 15.07171443  1301,6922.985,95.543,545.846,543.855,0.0
52625.0,STARLINK-3988,PAYLOAD,2022-08-29 22:00:00,15.07191214,0.0001331999999999,53.2151,290.0776,74.3534,120.3256,0.00089999,0.00013437,0.0,0 STARLINK-3988,1 52625U 22052AD  22241.91667824  .00013437  00000-0  89999-3 0  9990,2 52625  53.2151 290.0776 0001332  74.3534 120.3256 15.07191214  1309,6922.925,95.542,545.712,543.868,0.0
52625.0,STARLINK-3988,PAYLOAD,2022-08-30 14:00:01,15.07184342,0.000145,53.215,287.0937,65.6672,148.2702,0.0031089,0.00047331,0.0,0 STARLINK-3988,1 52625U 22052AD  22242.58334491  .00047331  00000-0  31089-2 0  9991,2 52625  53.2150 287.0937 0001450  65.6672 148.2702 15.07184342  1309,6922.946,95.542,545.815,543.807,0.0
52625.0,STARLINK-3988,PAYLOAD,2022-08-30 20:00:01,15.07219881,0.0001386999999999,53.2151,285.9728,72.2115,58.9418,-0.0016359,-0.00025107,0.0,0 STARLINK-3988,1 52625U 22052AD  22242.83334491 -.00025107  00000-0 -16359-2 0  9991,2 52625  53.2151 285.9728 0001387  72.2115  58.9418 15.07219881 17091,6922.837,95.54,545.6619999999998,543.742,0.0
52625.0,STARLINK-3988,PAYLOAD,2022-08-30 22:00:00,15.07168957,0.0001445,53.2152,285.5992,75.3378,148.2173,0.0011204,0.00016795,0.0,0 STARLINK-3988,1 52625U 22052AD  22242.91667824  .00016795  00000-0  11204-2 0  9994,2 52625  53.2152 285.5992 0001445  75.3378 148.2173 15.07168957  1306,6922.993,95.543,545.8580000000002,543.857,0.0
52625.0,STARLINK-3988,PAYLOAD,2022-08-31 14:00:01,15.07169158,0.0001536,53.215,282.6156,67.4432,175.3254,0.002701,0.0004103,0.0,0 STARLINK-3988,1 52625U 22052AD  22243.58334491  .00041030  00000-0  27010-2 0  9991,2 52625  53.2150 282.6156 0001536  67.4432 175.3254 15.07169158  1303,6922.9919999999975,95.543,545.9209999999998,543.794,0.0
52625.0,STARLINK-3988,PAYLOAD,2022-08-31 22:00:00,15.07175346,0.0001424,53.2151,281.1211,76.1732,176.2103,0.0019041,0.00028796,0.0,0 STARLINK-3988,1 52625U 22052AD  22243.91667824  .00028796  00000-0  19041-2 0  9996,2 52625  53.2151 281.1211 0001424  76.1732 176.2103 15.07175346  1305,6922.973000000001,95.543,545.8240000000002,543.852,0.0
52625.0,STARLINK-3988,PAYLOAD,2022-09-01 04:00:01,15.07204482,0.0001475,53.2153,280.0018,78.6106,91.0351,-0.00056602,-8.889e-05,0.0,0 STARLINK-3988,1 52625U 22052AD  22244.16668981 -.00008889  00000-0 -56602-3 0  9997,2 52625  53.2153 280.0018 0001475  78.6106  91.0351 15.07204482 17296,6922.884,95.541,545.77,543.7280000000002,0.0
52625.0,STARLINK-3988,PAYLOAD,2022-09-01 14:00:01,15.07181769,0.0001505,53.2147,278.1375,68.044,203.6344,0.0021298,0.00032264,0.0,0 STARLINK-3988,1 52625U 22052AD  22244.58335648  .00032264  00000-0  21298-2 0  9998,2 52625  53.2147 278.1375 0001505  68.0440 203.6344 15.07181769  1301,6922.954000000002,95.543,545.86,543.7769999999998,0.0
